EUTELSAT 7A             
1 28187U 04008A   25238.57309147  .00000099  00000+0  00000+0 0  9990
2 28187   5.0770  75.5298 0000934 105.5996 221.0358  1.00271960 78398
EUTELSAT 174A           
1 28924U 05052A   25238.47892013  .00000005  00000+0  00000+0 0  9994
2 28924   3.4675  80.2034 0006075  76.6510 164.5455  1.00274985 49371
EUTELSAT HOTBIRD 13B    
1 29270U 06032A   25238.60723829  .00000151  00000+0  00000+0 0  9993
2 29270   0.8955  85.5579 0004005  65.1038  76.1055  1.00272421 44359
EUTELSAT HOTBIRD 13C    
1 33459U 08065A   25238.42128277 -.00000105  00000+0  00000+0 0  9991
2 33459   2.1875  82.7216 0003861  91.5332 299.8110  1.00272591 44393
EUTELSAT 36B            
1 36101U 09065A   25238.61070497  .00000107  00000+0  00000+0 0  9991
2 36101   0.0540   2.3584 0005753 156.0081  87.0782  1.00274654 57750
EUTELSAT KA-SAT 9A      
1 37258U 10069A   25238.58308718  .00000057  00000+0  00000+0 0  9991
2 37258   0.0495 315.4423 0003695 174.1388  64.3899  1.00269142 41056
EUTELSAT 7 WEST A       
1 37816U 11051A   25238.59909159 -.00000065  00000+0  00000+0 0  9990
2 37816   0.0687  19.3393 0005384 147.2463  16.8534  1.00272535 50932
EUTELSAT 16A            
1 37836U 11057A   25238.57753223  .00000099  00000+0  00000+0 0  9991
2 37836   0.0654 357.2043 0005434 156.0843  45.6730  1.00271094  4374
